*******************************************************************************
Ephemeris / WWW_USER Mon Mar 24 09:06:49 2025 Pasadena, USA      / Horizons    
*******************************************************************************
Target body name: Lemmon (C/2018 EF9)             {source: JPL#18}
Center body name: Earth (399)                     {source: DE441}
Center-site name: Mauna Kea
*******************************************************************************
Start time      : A.D. 2018-Dec-06 03:52:00.0000 UT      
Stop  time      : A.D. 2018-Dec-06 16:33:00.0000 UT      
Step-size       : 1 minutes
*******************************************************************************
Target pole/equ : undefined
Target radii    : undefined                                                    
Center geodetic : 204.5278, 19.8260847, 4.21024   {E-lon(deg),Lat(deg),Alt(km)}
Center cylindric: 204.5278, 6006.35451, 2151.0229 {E-lon(deg),Dxy(km),Dz(km)}
Center pole/equ : ITRF93                          {East-longitude positive}
Center radii    : 6378.137, 6378.137, 6356.752 km {Equator_a, b, pole_c}       
Target primary  : Sun
Vis. interferer : MOON (R_eq= 1737.400) km        {source: DE441}
Rel. light bend : Sun                             {source: DE441}
Rel. lght bnd GM: 1.3271E+11 km^3/s^2                                          
Small-body perts: Yes                             {source: SB441-N16}
Atmos refraction: NO (AIRLESS)
RA format       : HMS
Time format     : CAL 
Calendar mode   : Mixed Julian/Gregorian
RTS-only print  : NO       
EOP file        : eop.250321.p250617                                           
EOP coverage    : DATA-BASED 1962-JAN-20 TO 2025-MAR-21. PREDICTS-> 2025-JUN-16
Units conversion: 1 au= 149597870.700 km, c= 299792.458 km/s, 1 day= 86400.0 s 
Table cut-offs 1: Elevation (-90.0deg=NO ),Airmass (>38.000=NO), Daylight (YES)
Table cut-offs 2: Solar elongation (  0.0,180.0=NO ),Local Hour Angle( 0.0=NO )
Table cut-offs 3: RA/DEC angular rate (     0.0=NO )                           
*******************************************************************************
Initial IAU76/J2000 heliocentric ecliptic osculating elements (au, days, deg.):
  EPOCH=  2458226.5 ! 2018-Apr-18.0000000 (TDB)    RMSW= n.a.                  
   EC= .9975741722198472   QR= 1.55663257903246    TP= 2458261.6283815675      
   OM= 172.5780664128357   W= 72.61657512148747    IN= 84.69445280104227       
  Equivalent ICRF heliocentric cartesian coordinates (au, au/d):
   X=-1.091857230976521E+00  Y=-4.544188696153424E-01  Z= 1.120998862172552E+00
  VX= 1.630642470498751E-02 VY=-6.481787118028984E-03 VZ= 7.403953065693920E-03
Comet physical (GM= km^3/s^2; RAD= km):                                        
   GM= n.a.                RAD= n.a.                                           
   M1=  8.6      M2=  17.8     k1=  45.25  k2=  5.      PHCOF=  .030           
*******************************************************************************
 Date__(UT)__HR:MN     R.A._________(ICRF)_________DEC
******************************************************
$$SOE
 2018-Dec-06 12:12     21 42 22.305834 +07 15 16.51168
 2018-Dec-06 12:13     21 42 22.352228 +07 15 15.97960
 2018-Dec-06 12:14     21 42 22.398625 +07 15 15.44752
 2018-Dec-06 12:15     21 42 22.445023 +07 15 14.91547
 2018-Dec-06 12:16     21 42 22.491425 +07 15 14.38342
 2018-Dec-06 12:17     21 42 22.537828 +07 15 13.85140
 2018-Dec-06 12:18     21 42 22.584234 +07 15 13.31938
 2018-Dec-06 12:19     21 42 22.630643 +07 15 12.78738
 2018-Dec-06 12:20     21 42 22.677053 +07 15 12.25540
 2018-Dec-06 12:21     21 42 22.723467 +07 15 11.72343
 2018-Dec-06 12:22     21 42 22.769882 +07 15 11.19148
 2018-Dec-06 12:23     21 42 22.816300 +07 15 10.65954
 2018-Dec-06 12:24     21 42 22.862720 +07 15 10.12761
 2018-Dec-06 12:25     21 42 22.909142 +07 15 09.59571
 2018-Dec-06 12:26     21 42 22.955566 +07 15 09.06381
 2018-Dec-06 12:27     21 42 23.001993 +07 15 08.53193
 2018-Dec-06 12:28     21 42 23.048422 +07 15 08.00007
 2018-Dec-06 12:29     21 42 23.094854 +07 15 07.46822
 2018-Dec-06 12:30     21 42 23.141287 +07 15 06.93638
 2018-Dec-06 12:31     21 42 23.187723 +07 15 06.40456
 2018-Dec-06 12:32     21 42 23.234161 +07 15 05.87276
 2018-Dec-06 12:33     21 42 23.280601 +07 15 05.34097
 2018-Dec-06 12:34     21 42 23.327044 +07 15 04.80920
 2018-Dec-06 12:35     21 42 23.373488 +07 15 04.27744
 2018-Dec-06 12:36     21 42 23.419935 +07 15 03.74569
 2018-Dec-06 12:37     21 42 23.466384 +07 15 03.21396
 2018-Dec-06 12:38     21 42 23.512835 +07 15 02.68225
 2018-Dec-06 12:39     21 42 23.559288 +07 15 02.15055
 2018-Dec-06 12:40     21 42 23.605743 +07 15 01.61887
 2018-Dec-06 12:41     21 42 23.652200 +07 15 01.08720
 2018-Dec-06 12:42     21 42 23.698659 +07 15 00.55554
 2018-Dec-06 12:43     21 42 23.745121 +07 15 00.02391
 2018-Dec-06 12:44     21 42 23.791584 +07 14 59.49228
 2018-Dec-06 12:45     21 42 23.838050 +07 14 58.96068
 2018-Dec-06 12:46     21 42 23.884517 +07 14 58.42908
 2018-Dec-06 12:47     21 42 23.930987 +07 14 57.89751
 2018-Dec-06 12:48     21 42 23.977459 +07 14 57.36595
 2018-Dec-06 12:49     21 42 24.023932 +07 14 56.83440
 2018-Dec-06 12:50     21 42 24.070408 +07 14 56.30287
 2018-Dec-06 12:51     21 42 24.116885 +07 14 55.77135
 2018-Dec-06 12:52     21 42 24.163365 +07 14 55.23985
 2018-Dec-06 12:53     21 42 24.209846 +07 14 54.70837
 2018-Dec-06 12:54     21 42 24.256330 +07 14 54.17690
 2018-Dec-06 12:55     21 42 24.302815 +07 14 53.64544
 2018-Dec-06 12:56     21 42 24.349302 +07 14 53.11401
 2018-Dec-06 12:57     21 42 24.395791 +07 14 52.58258
 2018-Dec-06 12:58     21 42 24.442282 +07 14 52.05118
 2018-Dec-06 12:59     21 42 24.488775 +07 14 51.51978
 2018-Dec-06 13:00     21 42 24.535270 +07 14 50.98841
 2018-Dec-06 13:01     21 42 24.581766 +07 14 50.45705
 2018-Dec-06 13:02     21 42 24.628264 +07 14 49.92570
 2018-Dec-06 13:03     21 42 24.674764 +07 14 49.39437
 2018-Dec-06 13:04     21 42 24.721266 +07 14 48.86305
 2018-Dec-06 13:05     21 42 24.767770 +07 14 48.33176
 2018-Dec-06 13:06     21 42 24.814276 +07 14 47.80047
 2018-Dec-06 13:07     21 42 24.860783 +07 14 47.26920
 2018-Dec-06 13:08     21 42 24.907292 +07 14 46.73795
 2018-Dec-06 13:09     21 42 24.953803 +07 14 46.20672
 2018-Dec-06 13:10     21 42 25.000315 +07 14 45.67549
 2018-Dec-06 13:11     21 42 25.046829 +07 14 45.14429
 2018-Dec-06 13:12     21 42 25.093345 +07 14 44.61310
 2018-Dec-06 13:13     21 42 25.139862 +07 14 44.08193
 2018-Dec-06 13:14     21 42 25.186382 +07 14 43.55077
 2018-Dec-06 13:15     21 42 25.232902 +07 14 43.01962
 2018-Dec-06 13:16     21 42 25.279425 +07 14 42.48850
 2018-Dec-06 13:17     21 42 25.325949 +07 14 41.95739
 2018-Dec-06 13:18     21 42 25.372475 +07 14 41.42629
 2018-Dec-06 13:19     21 42 25.419002 +07 14 40.89521
 2018-Dec-06 13:20     21 42 25.465531 +07 14 40.36415
 2018-Dec-06 13:21     21 42 25.512061 +07 14 39.83310
 2018-Dec-06 13:22     21 42 25.558593 +07 14 39.30207
 2018-Dec-06 13:23     21 42 25.605127 +07 14 38.77105
 2018-Dec-06 13:24     21 42 25.651662 +07 14 38.24005
 2018-Dec-06 13:25     21 42 25.698198 +07 14 37.70906
 2018-Dec-06 13:26     21 42 25.744736 +07 14 37.17810
 2018-Dec-06 13:27     21 42 25.791276 +07 14 36.64714
 2018-Dec-06 13:28     21 42 25.837817 +07 14 36.11621
 2018-Dec-06 13:29     21 42 25.884359 +07 14 35.58528
 2018-Dec-06 13:30     21 42 25.930903 +07 14 35.05438
 2018-Dec-06 13:31     21 42 25.977448 +07 14 34.52349
 2018-Dec-06 13:32     21 42 26.023995 +07 14 33.99261
 2018-Dec-06 13:33     21 42 26.070543 +07 14 33.46176
 2018-Dec-06 13:34     21 42 26.117093 +07 14 32.93091
 2018-Dec-06 13:35     21 42 26.163644 +07 14 32.40009
 2018-Dec-06 13:36     21 42 26.210196 +07 14 31.86928
 2018-Dec-06 13:37     21 42 26.256749 +07 14 31.33848
 2018-Dec-06 13:38     21 42 26.303304 +07 14 30.80771
 2018-Dec-06 13:39     21 42 26.349860 +07 14 30.27694
 2018-Dec-06 13:40     21 42 26.396418 +07 14 29.74620
 2018-Dec-06 13:41     21 42 26.442977 +07 14 29.21547
 2018-Dec-06 13:42     21 42 26.489537 +07 14 28.68475
 2018-Dec-06 13:43     21 42 26.536098 +07 14 28.15406
 2018-Dec-06 13:44     21 42 26.582661 +07 14 27.62337
 2018-Dec-06 13:45     21 42 26.629224 +07 14 27.09271
 2018-Dec-06 13:46     21 42 26.675789 +07 14 26.56206
 2018-Dec-06 13:47     21 42 26.722356 +07 14 26.03142
 2018-Dec-06 13:48     21 42 26.768923 +07 14 25.50081
 2018-Dec-06 13:49     21 42 26.815491 +07 14 24.97020
 2018-Dec-06 13:50     21 42 26.862061 +07 14 24.43962
 2018-Dec-06 13:51     21 42 26.908632 +07 14 23.90905
 2018-Dec-06 13:52     21 42 26.955204 +07 14 23.37849
 2018-Dec-06 13:53     21 42 27.001777 +07 14 22.84796
 2018-Dec-06 13:54     21 42 27.048351 +07 14 22.31744
 2018-Dec-06 13:55     21 42 27.094926 +07 14 21.78693
 2018-Dec-06 13:56     21 42 27.141503 +07 14 21.25644
 2018-Dec-06 13:57     21 42 27.188080 +07 14 20.72597
 2018-Dec-06 13:58     21 42 27.234658 +07 14 20.19551
 2018-Dec-06 13:59     21 42 27.281238 +07 14 19.66507
 2018-Dec-06 14:00     21 42 27.327818 +07 14 19.13465
 2018-Dec-06 14:01     21 42 27.374399 +07 14 18.60424
 2018-Dec-06 14:02     21 42 27.420982 +07 14 18.07385
 2018-Dec-06 14:03     21 42 27.467565 +07 14 17.54347
 2018-Dec-06 14:04     21 42 27.514149 +07 14 17.01311
 2018-Dec-06 14:05     21 42 27.560735 +07 14 16.48277
 2018-Dec-06 14:06     21 42 27.607321 +07 14 15.95244
 2018-Dec-06 14:07     21 42 27.653908 +07 14 15.42213
 2018-Dec-06 14:08     21 42 27.700496 +07 14 14.89184
 2018-Dec-06 14:09     21 42 27.747084 +07 14 14.36156
 2018-Dec-06 14:10     21 42 27.793674 +07 14 13.83130
 2018-Dec-06 14:11     21 42 27.840265 +07 14 13.30105
 2018-Dec-06 14:12     21 42 27.886856 +07 14 12.77082
 2018-Dec-06 14:13     21 42 27.933448 +07 14 12.24061
 2018-Dec-06 14:14     21 42 27.980041 +07 14 11.71041
 2018-Dec-06 14:15     21 42 28.026635 +07 14 11.18023
 2018-Dec-06 14:16     21 42 28.073229 +07 14 10.65006
